start=new Date('2021-12-05T00:00:00.000Z').valueOf();
sats=[{"BSTAR":"0.00007056100000","PERIAPSIS":"546.232","EPOCH":"2021-12-04T17:37:02.804736","EPHEMERIS_TYPE":"0","DECAY_DATE":null,"RCS_SIZE":"LARGE","TIME_SYSTEM":"UTC","MEAN_ELEMENT_THEORY":"SGP4","OBJECT_TYPE":"PAYLOAD","OBJECT_ID":"2021-040BM","PERIOD":"95.593","OBJECT_NAME":"STARLINK-2494","NORAD_CAT_ID":"48487","MEAN_ANOMALY":"296.5819","SEMIMAJOR_AXIS":"6925.374","FILE":"3232651","MEAN_MOTION":"15.06391731","SITE":"AFETR","GP_ID":"191105199","LAUNCH_DATE":"2021-05-09","MEAN_MOTION_DOT":"0.00000769","ELEMENT_SET_NO":"999","COUNTRY_CODE":"US","RA_OF_ASC_NODE":"346.5816","APOAPSIS":"548.246","ARG_OF_PERICENTER":"63.5319","TLE_LINE1":"1 48487U 21040BM  21338.73406024  .00000769  00000-0  70561-4 0  9996","MEAN_MOTION_DDOT":"0.0000000000000","ECCENTRICITY":"0.00014540","REV_AT_EPOCH":"3183","TLE_LINE2":"2 48487  53.0575 346.5816 0001454  63.5319 296.5819 15.06391731 31833","CLASSIFICATION_TYPE":"U","CENTER_NAME":"EARTH","REF_FRAME":"TEME","INCLINATION":"53.0575"},{"PERIAPSIS":"545.679","BSTAR":"0.00004224100000","TIME_SYSTEM":"UTC","RCS_SIZE":"LARGE","MEAN_ELEMENT_THEORY":"SGP4","EPOCH":"2021-12-04T05:55:05.607552","EPHEMERIS_TYPE":"0","DECAY_DATE":null,"OBJECT_TYPE":"PAYLOAD","OBJECT_ID":"2021-041A","PERIOD":"95.593","MEAN_ANOMALY":"305.2719","OBJECT_NAME":"STARLINK-2063","NORAD_CAT_ID":"48553","MEAN_MOTION_DOT":"0.00000347","ELEMENT_SET_NO":"999","MEAN_MOTION":"15.06392591","FILE":"3232651","SEMIMAJOR_AXIS":"6925.371","LAUNCH_DATE":"2021-05-15","GP_ID":"191104583","SITE":"AFETR","COUNTRY_CODE":"US","RA_OF_ASC_NODE":"278.7662","APOAPSIS":"548.793","ECCENTRICITY":"0.00022480","ARG_OF_PERICENTER":"54.8480","TLE_LINE1":"1 48553U 21041A   21338.24659268  .00000347  00000-0  42241-4 0  9993","MEAN_MOTION_DDOT":"0.0000000000000","CENTER_NAME":"EARTH","REF_FRAME":"TEME","INCLINATION":"53.0555","TLE_LINE2":"2 48553  53.0555 278.7662 0002248  54.8480 305.2719 15.06392591 30611","REV_AT_EPOCH":"3061","CLASSIFICATION_TYPE":"U"},{"PERIOD":"95.592","OBJECT_ID":"2021-041B","OBJECT_TYPE":"PAYLOAD","MEAN_ANOMALY":"304.7700","OBJECT_NAME":"STARLINK-2139","NORAD_CAT_ID":"48554","PERIAPSIS":"545.542","BSTAR":"0.00008453700000","TIME_SYSTEM":"UTC","RCS_SIZE":"LARGE","MEAN_ELEMENT_THEORY":"SGP4","EPOCH":"2021-12-04T07:41:14.493696","DECAY_DATE":null,"EPHEMERIS_TYPE":"0","ECCENTRICITY":"0.00024250","ARG_OF_PERICENTER":"55.3517","MEAN_MOTION_DDOT":"0.0000000000000","TLE_LINE1":"1 48554U 21041B   21338.32030664  .00000977  00000-0  84537-4 0  9999","REF_FRAME":"TEME","CENTER_NAME":"EARTH","INCLINATION":"53.0548","TLE_LINE2":"2 48554  53.0548 278.4386 0002425  55.3517 304.7700 15.06397602 30621","REV_AT_EPOCH":"3062","CLASSIFICATION_TYPE":"U","MEAN_MOTION_DOT":"0.00000977","ELEMENT_SET_NO":"999","SEMIMAJOR_AXIS":"6925.356","FILE":"3232651","MEAN_MOTION":"15.06397602","SITE":"AFETR","GP_ID":"191105051","LAUNCH_DATE":"2021-05-15","COUNTRY_CODE":"US","RA_OF_ASC_NODE":"278.4386","APOAPSIS":"548.900"},{"SITE":"AFETR","GP_ID":"191105207","LAUNCH_DATE":"2021-05-15","FILE":"3232651","MEAN_MOTION":"15.06394205","SEMIMAJOR_AXIS":"6925.366","ELEMENT_SET_NO":"999","MEAN_MOTION_DOT":"0.00000506","APOAPSIS":"548.683","COUNTRY_CODE":"US","RA_OF_ASC_NODE":"288.6041","TLE_LINE1":"1 48555U 21041C   21338.28252772  .00000506  00000-0  52877-4 0  9991","MEAN_MOTION_DDOT":"0.0000000000000","ARG_OF_PERICENTER":"58.7706","ECCENTRICITY":"0.00020960","CLASSIFICATION_TYPE":"U","TLE_LINE2":"2 48555  53.0566 288.6041 0002096  58.7706 301.3488 15.06394205 30479","REV_AT_EPOCH":"3047","INCLINATION":"53.0566","CENTER_NAME":"EARTH","REF_FRAME":"TEME","BSTAR":"0.00005287700000","PERIAPSIS":"545.780","EPHEMERIS_TYPE":"0","DECAY_DATE":null,"EPOCH":"2021-12-04T06:46:50.395008","MEAN_ELEMENT_THEORY":"SGP4","TIME_SYSTEM":"UTC","RCS_SIZE":"LARGE","OBJECT_TYPE":"PAYLOAD","PERIOD":"95.593","OBJECT_ID":"2021-041C","NORAD_CAT_ID":"48555","OBJECT_NAME":"STARLINK-2145","MEAN_ANOMALY":"301.3488"},{"OBJECT_NAME":"STARLINK-2151","NORAD_CAT_ID":"48556","MEAN_ANOMALY":"300.4756","OBJECT_TYPE":"PAYLOAD","PERIOD":"95.592","OBJECT_ID":"2021-041D","EPOCH":"2021-12-04T14:28:36.573312","EPHEMERIS_TYPE":"0","DECAY_DATE":null,"TIME_SYSTEM":"UTC","RCS_SIZE":"LARGE","MEAN_ELEMENT_THEORY":"SGP4","BSTAR":"-0.00000151220000","PERIAPSIS":"545.943","REV_AT_EPOCH":"3052","TLE_LINE2":"2 48556  53.0569 287.1557 0001848  59.6416 300.4756 15.06397129 30523","CLASSIFICATION_TYPE":"U","CENTER_NAME":"EARTH","REF_FRAME":"TEME","INCLINATION":"53.0569","ARG_OF_PERICENTER":"59.6416","TLE_LINE1":"1 48556U 21041D   21338.60320108 -.00000304  00000-0 -15122-5 0  9998","MEAN_MOTION_DDOT":"0.0000000000000","ECCENTRICITY":"0.00018480","RA_OF_ASC_NODE":"287.1557","COUNTRY_CODE":"US","APOAPSIS":"548.502","FILE":"3232651","SEMIMAJOR_AXIS":"6925.357","MEAN_MOTION":"15.06397129","SITE":"AFETR","GP_ID":"191104428","LAUNCH_DATE":"2021-05-15","MEAN_MOTION_DOT":"-0.00000304","ELEMENT_SET_NO":"999"},{"ECCENTRICITY":"0.00021220","TLE_LINE1":"1 48557U 21041E   21338.54146771 -.00001421  00000-0 -76527-4 0  9990","MEAN_MOTION_DDOT":"0.0000000000000","ARG_OF_PERICENTER":"56.4809","INCLINATION":"53.0550","CENTER_NAME":"EARTH","REF_FRAME":"TEME","CLASSIFICATION_TYPE":"U","REV_AT_EPOCH":"3065","TLE_LINE2":"2 48557  53.0550 277.4497 0002122  56.4809 303.6382 15.06390633 30653","ELEMENT_SET_NO":"999","MEAN_MOTION_DOT":"-0.00001421","GP_ID":"191104896","LAUNCH_DATE":"2021-05-15","SITE":"AFETR","FILE":"3232651","MEAN_MOTION":"15.06390633","SEMIMAJOR_AXIS":"6925.377","APOAPSIS":"548.712","COUNTRY_CODE":"US","RA_OF_ASC_NODE":"277.4497","OBJECT_TYPE":"PAYLOAD","PERIOD":"95.593","OBJECT_ID":"2021-041E","MEAN_ANOMALY":"303.6382","NORAD_CAT_ID":"48557","OBJECT_NAME":"STARLINK-2155","PERIAPSIS":"545.773","BSTAR":"-0.00007652700000","MEAN_ELEMENT_THEORY":"SGP4","TIME_SYSTEM":"UTC","RCS_SIZE":"LARGE","EPHEMERIS_TYPE":"0","DECAY_DATE":null,"EPOCH":"2021-12-04T12:59:42.810144"},{"ARG_OF_PERICENTER":"57.5470","TLE_LINE1":"1 48558U 21041F   21338.53777686  .00000925  00000-0  81021-4 0  9996","MEAN_MOTION_DDOT":"0.0000000000000","ECCENTRICITY":"0.00019860","REV_AT_EPOCH":"2979","TLE_LINE2":"2 48558  53.0545 277.4611 0001986  57.5470 302.5710 15.06398303 29797","CLASSIFICATION_TYPE":"U","CENTER_NAME":"EARTH","REF_FRAME":"TEME","INCLINATION":"53.0545","SEMIMAJOR_AXIS":"6925.354","FILE":"3232651","MEAN_MOTION":"15.06398303","GP_ID":"191105363","LAUNCH_DATE":"2021-05-15","SITE":"AFETR","MEAN_MOTION_DOT":"0.00000925","ELEMENT_SET_NO":"999","COUNTRY_CODE":"US","RA_OF_ASC_NODE":"277.4611","APOAPSIS":"548.594","OBJECT_TYPE":"PAYLOAD","PERIOD":"95.592","OBJECT_ID":"2021-041F","OBJECT_NAME":"STARLINK-2166","NORAD_CAT_ID":"48558","MEAN_ANOMALY":"302.5710","BSTAR":"0.00008102100000","PERIAPSIS":"545.843","EPOCH":"2021-12-04T12:54:23.920704","EPHEMERIS_TYPE":"0","DECAY_DATE":null,"RCS_SIZE":"LARGE","TIME_SYSTEM":"UTC","MEAN_ELEMENT_THEORY":"SGP4"},{"RA_OF_ASC_NODE":"276.3987","COUNTRY_CODE":"US","APOAPSIS":"548.573","MEAN_MOTION_DOT":"0.00000416","ELEMENT_SET_NO":"999","SEMIMAJOR_AXIS":"6925.372","FILE":"3232651","MEAN_MOTION":"15.06392397","GP_ID":"191105519","SITE":"AFETR","LAUNCH_DATE":"2021-05-15","REF_FRAME":"TEME","CENTER_NAME":"EARTH","INCLINATION":"53.0524","REV_AT_EPOCH":"3068","TLE_LINE2":"2 48559  53.0524 276.3987 0001929  64.7849 295.3340 15.06392397 30681","CLASSIFICATION_TYPE":"U","ECCENTRICITY":"0.00019290","ARG_OF_PERICENTER":"64.7849","MEAN_MOTION_DDOT":"0.0000000000000","TLE_LINE1":"1 48559U 21041G   21338.77273029  .00000416  00000-0  46822-4 0  9990","RCS_SIZE":"LARGE","TIME_SYSTEM":"UTC","MEAN_ELEMENT_THEORY":"SGP4","EPOCH":"2021-12-04T18:32:43.897056","DECAY_DATE":null,"EPHEMERIS_TYPE":"0","PERIAPSIS":"545.901","BSTAR":"0.00004682200000","MEAN_ANOMALY":"295.3340","OBJECT_NAME":"STARLINK-2167","NORAD_CAT_ID":"48559","PERIOD":"95.593","OBJECT_ID":"2021-041G","OBJECT_TYPE":"PAYLOAD"},{"OBJECT_NAME":"STARLINK-2173","NORAD_CAT_ID":"48560","MEAN_ANOMALY":"281.5629","OBJECT_TYPE":"PAYLOAD","OBJECT_ID":"2021-041H","PERIOD":"92.287","EPOCH":"2021-12-04T21:51:31.333248","EPHEMERIS_TYPE":"0","DECAY_DATE":null,"RCS_SIZE":"MEDIUM","TIME_SYSTEM":"UTC","MEAN_ELEMENT_THEORY":"SGP4","BSTAR":"0.00658360000000","PERIAPSIS":"385.352","TLE_LINE2":"2 48560  53.0510 269.4698 0001919  78.5599 281.5629 15.60349111 31701","REV_AT_EPOCH":"3170","CLASSIFICATION_TYPE":"U","CENTER_NAME":"EARTH","REF_FRAME":"TEME","INCLINATION":"53.0510","ARG_OF_PERICENTER":"78.5599","TLE_LINE1":"1 48560U 21041H   21338.91077932  .00590939  00000-0  65836-2 0  9991","MEAN_MOTION_DDOT":"0.0000000000000","ECCENTRICITY":"0.00019190","RA_OF_ASC_NODE":"269.4698","COUNTRY_CODE":"US","APOAPSIS":"387.948","FILE":"3232651","MEAN_MOTION":"15.60349111","SEMIMAJOR_AXIS":"6764.785","LAUNCH_DATE":"2021-05-15","GP_ID":"191104740","SITE":"AFETR","MEAN_MOTION_DOT":"0.00590939","ELEMENT_SET_NO":"999"},{"ECCENTRICITY":"0.00031400","ARG_OF_PERICENTER":"63.0069","TLE_LINE1":"1 48561U 21041J   21338.91667824 -.00026653  00000-0 -17764-2 0  9993","MEAN_MOTION_DDOT":"0.0000000000000","CENTER_NAME":"EARTH","REF_FRAME":"TEME","INCLINATION":"53.0570","TLE_LINE2":"2 48561  53.0570 245.7548 0003140  63.0069  63.1378 15.06410405  3572","REV_AT_EPOCH":"357","CLASSIFICATION_TYPE":"U","MEAN_MOTION_DOT":"-0.00026653","ELEMENT_SET_NO":"999","FILE":"3232651","SEMIMAJOR_AXIS":"6925.317","MEAN_MOTION":"15.06410405","LAUNCH_DATE":"2021-05-15","GP_ID":"191104584","SITE":"AFETR","RA_OF_ASC_NODE":"245.7548","COUNTRY_CODE":"US","APOAPSIS":"549.356","OBJECT_TYPE":"PAYLOAD","PERIOD":"95.591","OBJECT_ID":"2021-041J","MEAN_ANOMALY":"63.1378","OBJECT_NAME":"STARLINK-2186","NORAD_CAT_ID":"48561","PERIAPSIS":"545.007","BSTAR":"-0.00177640000000","TIME_SYSTEM":"UTC","RCS_SIZE":"LARGE","MEAN_ELEMENT_THEORY":"SGP4","EPOCH":"2021-12-04T22:00:00.999936","EPHEMERIS_TYPE":"0","DECAY_DATE":null}];
